25042,IRIDIUM 39,1997,99.38,-1.0,-,86.39,Inactive,0,LEO,USA,USA,Unknown,Unknown,Unknown,1 25042U 97069D   25086.16658187  .00002552  00000+0  66644-3 0  9999,2 25042  86.3876 246.2817 0016695 215.3700 144.6398 14.49043531437348,14.49043531,0.0016695,LEO
25043,IRIDIUM 38,1997,100.14,-1.0,-,86.39,Inactive,0,LEO,USA,USA,Unknown,Unknown,Unknown,1 25043U 97069E   25085.78418748  .00001397  00000+0  45564-3 0  9998,2 25043  86.3898 267.8328 0003031  51.2323 308.9145 14.37998504434110,14.37998504,0.0003031,LEO
25077,IRIDIUM 42,1997,100.26,-1.0,-,86.39,Inactive,0,LEO,PRC,USA,Unknown,Unknown,Unknown,1 25077U 97077A   25085.61973041  .00001283  00000+0  43296-3 0  9992,2 25077  86.3901 273.9767 0002505  74.6983 285.4491 14.36242615429349,14.36242615,0.0002505,LEO
25078,IRIDIUM 44,1997,99.99,-1.0,-,86.39,Inactive,0,LEO,PRC,USA,Unknown,Unknown,Unknown,1 25078U 97077B   25085.72749663  .00001461  00000+0  45694-3 0  9998,2 25078  86.3909 256.0539 0001018  28.8589 331.2666 14.40128920431836,14.4012892,0.0001018,LEO
25104,IRIDIUM 45,1997,94.83,-1.0,-,86.35,Inactive,0,LEO,USA,USA,Unknown,Unknown,Unknown,1 25104U 97082A   25086.06216602  .00040729  00000+0  16112-2 0  9996,2 25104  86.3539  87.6716 0121444 278.7569  79.9935 15.18634042439814,15.18634042,0.0121444,LEO
25105,IRIDIUM 24,1997,99.86,-1.0,-,86.39,Inactive,0,LEO,USA,USA,Unknown,Unknown,Unknown,1 25105U 97082B   25085.80622366  .00001318  00000+0  39616-3 0  9992,2 25105  86.3869 115.2572 0011189   2.4473 357.6779 14.41973044431344,14.41973044,0.0011189,LEO
25262,IRIDIUM 51,1998,93.94,-1.0,-,86.38,Inactive,0,LEO,PRC,USA,Unknown,Unknown,Unknown,1 25262U 98018A   25086.03823359  .00057719  00000+0  15471-2 0  9995,2 25262  86.3805  96.3097 0098106 202.4814 157.2125 15.32933659434637,15.32933659,0.0098106,LEO
25273,IRIDIUM 57,1998,100.29,-1.0,-,86.4,Inactive,0,LEO,USA,USA,Unknown,Unknown,Unknown,1 25273U 98019B   25085.73019837  .00001090  00000+0  37010-3 0  9997,2 25273  86.4037 179.7810 0002155  92.8838 267.2605 14.35812414412955,14.35812414,0.0002155,LEO
